start=new Date('2023-02-27T00:00:00.000Z').valueOf();
sats=[{"EPOCH":"2023-02-26T21:13:13.877760","SEMIMAJOR_AXIS":"6925.304","RCS_SIZE":"LARGE","REF_FRAME":"TEME","REV_AT_EPOCH":"10034","PERIOD":"95.591","PERIAPSIS":"546.449","EPHEMERIS_TYPE":"0","ECCENTRICITY":"0.00010400","COUNTRY_CODE":"US","MEAN_MOTION_DOT":"0.00007263","OBJECT_NAME":"STARLINK-2604","GP_ID":"227065620","MEAN_MOTION":"15.06414543","SITE":"AFETR","RA_OF_ASC_NODE":"280.2566","ARG_OF_PERICENTER":"84.0316","ELEMENT_SET_NO":"999","INCLINATION":"53.0522","MEAN_ANOMALY":"276.0792","CLASSIFICATION_TYPE":"U","APOAPSIS":"547.889","CENTER_NAME":"EARTH","OBJECT_TYPE":"PAYLOAD","TLE_LINE1":"1 48374U 21038X   23057.88418840  .00007263  00000-0  50578-3 0  9994","DECAY_DATE":null,"LAUNCH_DATE":"2021-05-04","FILE":"3843368","MEAN_MOTION_DDOT":"0.0000000000000","BSTAR":"0.00050578000000","TLE_LINE2":"2 48374  53.0522 280.2566 0001040  84.0316 276.0792 15.06414543100345","TIME_SYSTEM":"UTC","MEAN_ELEMENT_THEORY":"SGP4","NORAD_CAT_ID":"48374","OBJECT_ID":"2021-038X"},{"COUNTRY_CODE":"US","ECCENTRICITY":"0.00013240","MEAN_MOTION_DOT":"0.00011449","OBJECT_NAME":"STARLINK-2603","GP_ID":"227064899","MEAN_MOTION":"15.06422238","RA_OF_ASC_NODE":"280.2740","SITE":"AFETR","ELEMENT_SET_NO":"999","ARG_OF_PERICENTER":"84.1417","INCLINATION":"53.0530","MEAN_ANOMALY":"275.9723","SEMIMAJOR_AXIS":"6925.280","RCS_SIZE":"LARGE","EPOCH":"2023-02-26T21:09:16.288128","REF_FRAME":"TEME","REV_AT_EPOCH":"10034","PERIOD":"95.591","PERIAPSIS":"546.228","EPHEMERIS_TYPE":"0","MEAN_MOTION_DDOT":"0.0000000000000","FILE":"3843368","TLE_LINE2":"2 48375  53.0530 280.2740 0001324  84.1417 275.9723 15.06422238100349","BSTAR":"0.00078578000000","TIME_SYSTEM":"UTC","MEAN_ELEMENT_THEORY":"SGP4","NORAD_CAT_ID":"48375","OBJECT_ID":"2021-038Y","APOAPSIS":"548.062","CLASSIFICATION_TYPE":"U","CENTER_NAME":"EARTH","OBJECT_TYPE":"PAYLOAD","TLE_LINE1":"1 48375U 21038Y   23057.88143852  .00011449  00000-0  78578-3 0  9994","DECAY_DATE":null,"LAUNCH_DATE":"2021-05-04"},{"FILE":"3843368","MEAN_MOTION_DDOT":"0.0000000000000","BSTAR":"0.00040080000000","TLE_LINE2":"2 48376  53.0519 280.2851 0000523  58.4236 301.6804 15.06408843100346","OBJECT_ID":"2021-038Z","MEAN_ELEMENT_THEORY":"SGP4","TIME_SYSTEM":"UTC","NORAD_CAT_ID":"48376","CENTER_NAME":"EARTH","OBJECT_TYPE":"PAYLOAD","APOAPSIS":"547.549","CLASSIFICATION_TYPE":"U","DECAY_DATE":null,"LAUNCH_DATE":"2021-05-04","TLE_LINE1":"1 48376U 21038Z   23057.87775289  .00005695  00000-0  40080-3 0  9992","GP_ID":"227065149","MEAN_MOTION":"15.06408843","ECCENTRICITY":"0.00005230","COUNTRY_CODE":"US","MEAN_MOTION_DOT":"0.00005695","OBJECT_NAME":"STARLINK-2610","ARG_OF_PERICENTER":"58.4236","SITE":"AFETR","RA_OF_ASC_NODE":"280.2851","ELEMENT_SET_NO":"999","MEAN_ANOMALY":"301.6804","INCLINATION":"53.0519","REV_AT_EPOCH":"10034","RCS_SIZE":"LARGE","SEMIMAJOR_AXIS":"6925.321","EPOCH":"2023-02-26T21:03:57.849696","REF_FRAME":"TEME","PERIAPSIS":"546.824","EPHEMERIS_TYPE":"0","PERIOD":"95.592"},{"GP_ID":"227065901","MEAN_MOTION":"15.06412682","ECCENTRICITY":"0.00012660","COUNTRY_CODE":"US","MEAN_MOTION_DOT":"0.00005132","OBJECT_NAME":"STARLINK-2499","SITE":"AFETR","ARG_OF_PERICENTER":"94.1134","RA_OF_ASC_NODE":"280.3025","ELEMENT_SET_NO":"999","INCLINATION":"53.0539","MEAN_ANOMALY":"266.0000","REV_AT_EPOCH":"10034","RCS_SIZE":"LARGE","SEMIMAJOR_AXIS":"6925.310","EPOCH":"2023-02-26T20:58:39.890784","REF_FRAME":"TEME","PERIAPSIS":"546.298","EPHEMERIS_TYPE":"0","PERIOD":"95.591","FILE":"3843368","MEAN_MOTION_DDOT":"0.0000000000000","TLE_LINE2":"2 48377  53.0539 280.3025 0001266  94.1134 266.0000 15.06412682100340","BSTAR":"0.00036306000000","OBJECT_ID":"2021-038AA","TIME_SYSTEM":"UTC","MEAN_ELEMENT_THEORY":"SGP4","NORAD_CAT_ID":"48377","CENTER_NAME":"EARTH","OBJECT_TYPE":"PAYLOAD","APOAPSIS":"548.051","CLASSIFICATION_TYPE":"U","DECAY_DATE":null,"LAUNCH_DATE":"2021-05-04","TLE_LINE1":"1 48377U 21038AA  23057.87407281  .00005132  00000-0  36306-3 0  9999"},{"TLE_LINE1":"1 48378U 21038AB  23057.87038391  .00011265  00000-0  77345-3 0  9994","DECAY_DATE":null,"LAUNCH_DATE":"2021-05-04","CLASSIFICATION_TYPE":"U","APOAPSIS":"547.998","CENTER_NAME":"EARTH","OBJECT_TYPE":"PAYLOAD","TIME_SYSTEM":"UTC","MEAN_ELEMENT_THEORY":"SGP4","NORAD_CAT_ID":"48378","OBJECT_ID":"2021-038AB","FILE":"3843368","MEAN_MOTION_DDOT":"0.0000000000000","TLE_LINE2":"2 48378  53.0508 280.3265 0001232 104.9752 255.1373 15.06422347100343","BSTAR":"0.00077345000000","PERIOD":"95.591","PERIAPSIS":"546.292","EPHEMERIS_TYPE":"0","EPOCH":"2023-02-26T20:53:21.169824","SEMIMAJOR_AXIS":"6925.280","RCS_SIZE":"LARGE","REF_FRAME":"TEME","REV_AT_EPOCH":"10034","SITE":"AFETR","RA_OF_ASC_NODE":"280.3265","ELEMENT_SET_NO":"999","ARG_OF_PERICENTER":"104.9752","INCLINATION":"53.0508","MEAN_ANOMALY":"255.1373","COUNTRY_CODE":"US","ECCENTRICITY":"0.00012320","MEAN_MOTION_DOT":"0.00011265","OBJECT_NAME":"STARLINK-2526","GP_ID":"227066121","MEAN_MOTION":"15.06422347"},{"APOAPSIS":"547.981","CLASSIFICATION_TYPE":"U","OBJECT_TYPE":"PAYLOAD","CENTER_NAME":"EARTH","TLE_LINE1":"1 48379U 21038AC  23057.66764986  .00001444  00000-0  11580-3 0  9995","LAUNCH_DATE":"2021-05-04","DECAY_DATE":null,"BSTAR":"0.00011580000000","TLE_LINE2":"2 48379  53.0536 281.2338 0001152  92.1210 267.9911 15.06410046100313","FILE":"3843368","MEAN_MOTION_DDOT":"0.0000000000000","NORAD_CAT_ID":"48379","MEAN_ELEMENT_THEORY":"SGP4","TIME_SYSTEM":"UTC","OBJECT_ID":"2021-038AC","REF_FRAME":"TEME","RCS_SIZE":"LARGE","SEMIMAJOR_AXIS":"6925.318","EPOCH":"2023-02-26T16:01:24.947904","REV_AT_EPOCH":"10031","PERIOD":"95.592","EPHEMERIS_TYPE":"0","PERIAPSIS":"546.385","OBJECT_NAME":"STARLINK-2612","MEAN_MOTION_DOT":"0.00001444","COUNTRY_CODE":"US","ECCENTRICITY":"0.00011520","MEAN_MOTION":"15.06410046","GP_ID":"227064399","INCLINATION":"53.0536","MEAN_ANOMALY":"267.9911","SITE":"AFETR","ARG_OF_PERICENTER":"92.1210","RA_OF_ASC_NODE":"281.2338","ELEMENT_SET_NO":"999"},{"EPOCH":"2023-02-26T15:01:40.757952","RCS_SIZE":"LARGE","SEMIMAJOR_AXIS":"6925.292","REF_FRAME":"TEME","REV_AT_EPOCH":"10030","PERIOD":"95.591","PERIAPSIS":"546.387","EPHEMERIS_TYPE":"0","ECCENTRICITY":"0.00011120","COUNTRY_CODE":"US","OBJECT_NAME":"STARLINK-2614","MEAN_MOTION_DOT":"0.00007405","GP_ID":"227064649","MEAN_MOTION":"15.06418292","SITE":"AFETR","ARG_OF_PERICENTER":"66.2885","RA_OF_ASC_NODE":"281.4226","ELEMENT_SET_NO":"999","INCLINATION":"53.0514","MEAN_ANOMALY":"293.8221","CLASSIFICATION_TYPE":"U","APOAPSIS":"547.928","CENTER_NAME":"EARTH","OBJECT_TYPE":"PAYLOAD","TLE_LINE1":"1 48380U 21038AD  23057.62616618  .00007405  00000-0  51522-3 0  9994","DECAY_DATE":null,"LAUNCH_DATE":"2021-05-04","FILE":"3843368","MEAN_MOTION_DDOT":"0.0000000000000","BSTAR":"0.00051522000000","TLE_LINE2":"2 48380  53.0514 281.4226 0001112  66.2885 293.8221 15.06418292100307","TIME_SYSTEM":"UTC","MEAN_ELEMENT_THEORY":"SGP4","NORAD_CAT_ID":"48380","OBJECT_ID":"2021-038AD"},{"DECAY_DATE":null,"LAUNCH_DATE":"2021-05-04","TLE_LINE1":"1 48381U 21038AE  23057.06684494  .00015923  00000-0  10844-2 0  9995","CENTER_NAME":"EARTH","OBJECT_TYPE":"PAYLOAD","CLASSIFICATION_TYPE":"U","APOAPSIS":"547.792","OBJECT_ID":"2021-038AE","MEAN_ELEMENT_THEORY":"SGP4","TIME_SYSTEM":"UTC","NORAD_CAT_ID":"48381","FILE":"3841853","MEAN_MOTION_DDOT":"0.0000000000000","TLE_LINE2":"2 48381  53.0511 283.9355 0000994  83.4310 276.6792 15.06435754100221","BSTAR":"0.00108440000000","PERIAPSIS":"546.416","EPHEMERIS_TYPE":"0","PERIOD":"95.590","REV_AT_EPOCH":"10022","EPOCH":"2023-02-26T01:36:15.402816","RCS_SIZE":"LARGE","SEMIMAJOR_AXIS":"6925.239","REF_FRAME":"TEME","ARG_OF_PERICENTER":"83.4310","SITE":"AFETR","ELEMENT_SET_NO":"999","RA_OF_ASC_NODE":"283.9355","INCLINATION":"53.0511","MEAN_ANOMALY":"276.6792","GP_ID":"227004995","MEAN_MOTION":"15.06435754","COUNTRY_CODE":"US","ECCENTRICITY":"0.00009940","OBJECT_NAME":"STARLINK-2630","MEAN_MOTION_DOT":"0.00015923"},{"OBJECT_NAME":"STARLINK-2585","MEAN_MOTION_DOT":"0.00018091","COUNTRY_CODE":"US","ECCENTRICITY":"0.00011050","MEAN_MOTION":"15.06438808","GP_ID":"227005245","MEAN_ANOMALY":"252.9084","INCLINATION":"53.0533","SITE":"AFETR","RA_OF_ASC_NODE":"283.9405","ARG_OF_PERICENTER":"107.2026","ELEMENT_SET_NO":"999","REF_FRAME":"TEME","EPOCH":"2023-02-26T01:30:56.738016","RCS_SIZE":"LARGE","SEMIMAJOR_AXIS":"6925.230","REV_AT_EPOCH":"10022","PERIOD":"95.590","EPHEMERIS_TYPE":"0","PERIAPSIS":"546.329","TLE_LINE2":"2 48382  53.0533 283.9405 0001105 107.2026 252.9084 15.06438808100220","BSTAR":"0.00122900000000","FILE":"3841853","MEAN_MOTION_DDOT":"0.0000000000000","NORAD_CAT_ID":"48382","MEAN_ELEMENT_THEORY":"SGP4","TIME_SYSTEM":"UTC","OBJECT_ID":"2021-038AF","CLASSIFICATION_TYPE":"U","APOAPSIS":"547.860","OBJECT_TYPE":"PAYLOAD","CENTER_NAME":"EARTH","TLE_LINE1":"1 48382U 21038AF  23057.06315669  .00018091  00000-0  12290-2 0  9997","LAUNCH_DATE":"2021-05-04","DECAY_DATE":null},{"MEAN_ANOMALY":"263.0323","INCLINATION":"53.0519","SITE":"AFETR","ARG_OF_PERICENTER":"97.0812","ELEMENT_SET_NO":"999","RA_OF_ASC_NODE":"280.9881","OBJECT_NAME":"STARLINK-2599","MEAN_MOTION_DOT":"0.00008715","COUNTRY_CODE":"US","ECCENTRICITY":"0.00012860","MEAN_MOTION":"15.06417131","GP_ID":"227064900","PERIOD":"95.591","EPHEMERIS_TYPE":"0","PERIAPSIS":"546.270","REF_FRAME":"TEME","RCS_SIZE":"LARGE","SEMIMAJOR_AXIS":"6925.296","EPOCH":"2023-02-26T17:21:02.439360","REV_AT_EPOCH":"10154","NORAD_CAT_ID":"48383","MEAN_ELEMENT_THEORY":"SGP4","TIME_SYSTEM":"UTC","OBJECT_ID":"2021-038AG","BSTAR":"0.00060293000000","TLE_LINE2":"2 48383  53.0519 280.9881 0001286  97.0812 263.0323 15.06417131101540","FILE":"3843368","MEAN_MOTION_DDOT":"0.0000000000000","TLE_LINE1":"1 48383U 21038AG  23057.72294490  .00008715  00000-0  60293-3 0  9998","LAUNCH_DATE":"2021-05-04","DECAY_DATE":null,"APOAPSIS":"548.052","CLASSIFICATION_TYPE":"U","OBJECT_TYPE":"PAYLOAD","CENTER_NAME":"EARTH"}];
